FENGYUN 1C DEB          
1 30700U 99025ARJ 17345.58717667  .00000067  00000-0  49346-4 0  9995
2 30700  98.8778   4.6597 0088142 315.5321  43.8804 14.21604078560194
